[{"OBJECT_NAME":"STARLINK-1470","OBJECT_ID":"2020-038AU","EPOCH":"2026-03-09T14:36:51.476832","MEAN_MOTION":15.2807486,"ECCENTRICITY":0.0002444,"INCLINATION":53.048,"RA_OF_ASC_NODE":174.6971,"ARG_OF_PERICENTER":12.8687,"MEAN_ANOMALY":347.2373,"EPHEMERIS_TYPE":0,"CLASSIFICATION_TYPE":"U","NORAD_CAT_ID":45772,"ELEMENT_SET_NO":999,"REV_AT_EPOCH":31706,"BSTAR":0.0019687,"MEAN_MOTION_DOT":0.00054678,"MEAN_MOTION_DDOT":0},{"OBJECT_NAME":"STARLINK-2590","OBJECT_ID":"2021-038AW","EPOCH":"2026-03-09T23:13:09.400224","MEAN_MOTION":15.30175723,"ECCENTRICITY":0.00012287,"INCLINATION":53.1606,"RA_OF_ASC_NODE":331.3508,"ARG_OF_PERICENTER":67.7668,"MEAN_ANOMALY":292.3463,"EPHEMERIS_TYPE":0,"CLASSIFICATION_TYPE":"U","NORAD_CAT_ID":48397,"ELEMENT_SET_NO":999,"REV_AT_EPOCH":26870,"BSTAR":-6.4755149e-5,"MEAN_MOTION_DOT":-2.275e-5,"MEAN_MOTION_DDOT":0}]
